[{"OBJECT_NAME":"VSP RF C1","OBJECT_ID":"2024-043AQ","EPOCH":"2026-03-09T21:56:05.358624","MEAN_MOTION":15.29409663,"ECCENTRICITY":0.00093965,"INCLINATION":97.5441,"RA_OF_ASC_NODE":205.1792,"ARG_OF_PERICENTER":219.6172,"MEAN_ANOMALY":140.4382,"EPHEMERIS_TYPE":0,"CLASSIFICATION_TYPE":"U","NORAD_CAT_ID":59136,"ELEMENT_SET_NO":999,"REV_AT_EPOCH":11190,"BSTAR":0.00026222052,"MEAN_MOTION_DOT":7.409e-5,"MEAN_MOTION_DDOT":0},{"OBJECT_NAME":"STARLINK-32007","OBJECT_ID":"2024-117D","EPOCH":"2026-03-09T05:24:47.361888","MEAN_MOTION":15.30183739,"ECCENTRICITY":0.00011037,"INCLINATION":53.1622,"RA_OF_ASC_NODE":39.4082,"ARG_OF_PERICENTER":96.1423,"MEAN_ANOMALY":263.9703,"EPHEMERIS_TYPE":0,"CLASSIFICATION_TYPE":"U","NORAD_CAT_ID":60094,"ELEMENT_SET_NO":999,"REV_AT_EPOCH":9681,"BSTAR":1.2225872e-5,"MEAN_MOTION_DOT":3.0e-8,"MEAN_MOTION_DDOT":0}]
